ONEWEB-0500             
1 54118U 22138F   25293.17601337  .00000065  00000+0  13017-3 0  9999
2 54118  87.9258 352.7109 0001956  98.3733 261.7621 13.19724594145179
ONEWEB-0501             
1 54119U 22138G   25293.20603225  .00000094  00000+0  20308-3 0  9995
2 54119  87.9266 352.6986 0001851 112.2911 247.8418 13.19724989145154
ONEWEB-0502             
1 54120U 22138H   25293.19181024  .00000045  00000+0  80934-4 0  9991
2 54120  87.9268 352.6841 0001723 106.2249 253.9073 13.19724814145177
ONEWEB-0503             
1 54121U 22138J   25293.18074770  .00000010  00000+0 -63445-5 0  9992
2 54121  87.9266 352.6904 0001615  95.0276 265.1041 13.19724495145165
ONEWEB-0504             
1 54122U 22138K   25293.16811356  .00000093  00000+0  20000-3 0  9998
2 54122  87.9269 352.7104 0001678 106.4342 253.6975 13.19724677145173
ONEWEB-0505             
1 54123U 22138L   25293.24077273  .00000042  00000+0  73536-4 0  9997
2 54123  87.9267 352.6841 0001738 116.7610 243.3701 13.19724401145165
ONEWEB-0506             
1 54124U 22138M   25293.13968486 -.00000004  00000+0 -42864-4 0  9991
2 54124  87.9268 352.7012 0001808 104.0377 256.0957 13.19724077145147
ONEWEB-0507             
1 54125U 22138N   25293.23603140  .00000013  00000+0  45760-6 0  9994
2 54125  87.9250 352.7267 0001900 105.7485 254.3858 13.19724535145209
ONEWEB-0508             
1 54126U 22138P   25293.23287601  .00000012  00000+0 -19534-5 0  9994
2 54126  87.9261 352.7156 0001928 110.8907 249.2432 13.19724984145181
ONEWEB-0509             
1 54127U 22138Q   25293.20759661 -.00000036  00000+0 -12309-3 0  9990
2 54127  87.9268 352.6863 0001870 102.6996 257.4346 13.19725102145151
ONEWEB-0510             
1 54128U 22138R   25293.05822216  .00000127  00000+0  28069-3 0  9990
2 54128  87.9207 322.3280 0002068  79.8891 280.2476 13.20770630147586
ONEWEB-0511             
1 54129U 22138S   25293.20444293  .00000064  00000+0  12811-3 0  9991
2 54129  87.9265 352.6918 0001501  96.1786 263.9518 13.19727492145186
ONEWEB-0512             
1 54130U 22138T   25293.19654503  .00000046  00000+0  82438-4 0  9991
2 54130  87.9248 352.7259 0001694 111.0378 249.0936 13.19724650145154
ONEWEB-0513             
1 54131U 22138U   25293.22607181  .00000000  00000+0 -32530-4 0  9995
2 54131  87.9272 352.6807 0001374 110.9108 249.2172 13.20317156145058
ONEWEB-0514             
1 54132U 22138V   25293.13652084  .00000125  00000+0  28023-3 0  9996
2 54132  87.9261 352.7176 0001869  95.2822 264.8524 13.19723993145168
ONEWEB-0515             
1 54133U 22138W   25293.04559854  .00000127  00000+0  28137-3 0  9996
2 54133  87.9216 322.3125 0002734  86.4754 273.6693 13.20771059147608
ONEWEB-0516             
1 54134U 22138X   25293.18706638  .00000115  00000+0  25518-3 0  9993
2 54134  87.9248 352.7329 0001928 102.8778 257.2571 13.19724856145174
