[{"OBJECT_NAME":"ONEWEB-0500","OBJECT_ID":"2022-138F","EPOCH":"2025-10-20T04:13:27.555168","MEAN_MOTION":13.19724594,"ECCENTRICITY":0.00019569,"INCLINATION":87.9258,"RA_OF_ASC_NODE":352.7109,"ARG_OF_PERICENTER":98.3733,"MEAN_ANOMALY":261.7621,"EPHEMERIS_TYPE":0,"CLASSIFICATION_TYPE":"U","NORAD_CAT_ID":54118,"ELEMENT_SET_NO":999,"REV_AT_EPOCH":14517,"BSTAR":0.00013017035,"MEAN_MOTION_DOT":6.5e-7,"MEAN_MOTION_DDOT":0},{"OBJECT_NAME":"ONEWEB-0501","OBJECT_ID":"2022-138G","EPOCH":"2025-10-20T04:56:41.186400","MEAN_MOTION":13.19724989,"ECCENTRICITY":0.0001851,"INCLINATION":87.9266,"RA_OF_ASC_NODE":352.6986,"ARG_OF_PERICENTER":112.2911,"MEAN_ANOMALY":247.8418,"EPHEMERIS_TYPE":0,"CLASSIFICATION_TYPE":"U","NORAD_CAT_ID":54119,"ELEMENT_SET_NO":999,"REV_AT_EPOCH":14515,"BSTAR":0.00020308062,"MEAN_MOTION_DOT":9.4e-7,"MEAN_MOTION_DDOT":0},{"OBJECT_NAME":"ONEWEB-0502","OBJECT_ID":"2022-138H","EPOCH":"2025-10-20T04:36:12.404736","MEAN_MOTION":13.19724814,"ECCENTRICITY":0.00017232,"INCLINATION":87.9268,"RA_OF_ASC_NODE":352.6841,"ARG_OF_PERICENTER":106.2249,"MEAN_ANOMALY":253.9073,"EPHEMERIS_TYPE":0,"CLASSIFICATION_TYPE":"U","NORAD_CAT_ID":54120,"ELEMENT_SET_NO":999,"REV_AT_EPOCH":14517,"BSTAR":8.0934092e-5,"MEAN_MOTION_DOT":4.5e-7,"MEAN_MOTION_DDOT":0},{"OBJECT_NAME":"ONEWEB-0503","OBJECT_ID":"2022-138J","EPOCH":"2025-10-20T04:20:16.601280","MEAN_MOTION":13.19724495,"ECCENTRICITY":0.00016158,"INCLINATION":87.9266,"RA_OF_ASC_NODE":352.6904,"ARG_OF_PERICENTER":95.0276,"MEAN_ANOMALY":265.1041,"EPHEMERIS_TYPE":0,"CLASSIFICATION_TYPE":"U","NORAD_CAT_ID":54121,"ELEMENT_SET_NO":999,"REV_AT_EPOCH":14516,"BSTAR":-6.344501e-6,"MEAN_MOTION_DOT":1.0e-7,"MEAN_MOTION_DDOT":0},{"OBJECT_NAME":"ONEWEB-0504","OBJECT_ID":"2022-138K","EPOCH":"2025-10-20T04:02:05.011584","MEAN_MOTION":13.19724677,"ECCENTRICITY":0.00016784,"INCLINATION":87.9269,"RA_OF_ASC_NODE":352.7104,"ARG_OF_PERICENTER":106.4342,"MEAN_ANOMALY":253.6975,"EPHEMERIS_TYPE":0,"CLASSIFICATION_TYPE":"U","NORAD_CAT_ID":54122,"ELEMENT_SET_NO":999,"REV_AT_EPOCH":14517,"BSTAR":0.00020000213,"MEAN_MOTION_DOT":9.3e-7,"MEAN_MOTION_DDOT":0},{"OBJECT_NAME":"ONEWEB-0505","OBJECT_ID":"2022-138L","EPOCH":"2025-10-20T05:46:42.763872","MEAN_MOTION":13.19724401,"ECCENTRICITY":0.00017387,"INCLINATION":87.9267,"RA_OF_ASC_NODE":352.6841,"ARG_OF_PERICENTER":116.761,"MEAN_ANOMALY":243.3701,"EPHEMERIS_TYPE":0,"CLASSIFICATION_TYPE":"U","NORAD_CAT_ID":54123,"ELEMENT_SET_NO":999,"REV_AT_EPOCH":14516,"BSTAR":7.3535911e-5,"MEAN_MOTION_DOT":4.2e-7,"MEAN_MOTION_DDOT":0},{"OBJECT_NAME":"ONEWEB-0506","OBJECT_ID":"2022-138M","EPOCH":"2025-10-20T03:21:08.771904","MEAN_MOTION":13.19724077,"ECCENTRICITY":0.00018084,"INCLINATION":87.9268,"RA_OF_ASC_NODE":352.7012,"ARG_OF_PERICENTER":104.0377,"MEAN_ANOMALY":256.0957,"EPHEMERIS_TYPE":0,"CLASSIFICATION_TYPE":"U","NORAD_CAT_ID":54124,"ELEMENT_SET_NO":999,"REV_AT_EPOCH":14514,"BSTAR":-4.2864045e-5,"MEAN_MOTION_DOT":-4.0e-8,"MEAN_MOTION_DDOT":0},{"OBJECT_NAME":"ONEWEB-0507","OBJECT_ID":"2022-138N","EPOCH":"2025-10-20T05:39:53.112960","MEAN_MOTION":13.19724535,"ECCENTRICITY":0.00019009,"INCLINATION":87.925,"RA_OF_ASC_NODE":352.7267,"ARG_OF_PERICENTER":105.7485,"MEAN_ANOMALY":254.3858,"EPHEMERIS_TYPE":0,"CLASSIFICATION_TYPE":"U","NORAD_CAT_ID":54125,"ELEMENT_SET_NO":999,"REV_AT_EPOCH":14520,"BSTAR":4.57597e-7,"MEAN_MOTION_DOT":1.3e-7,"MEAN_MOTION_DDOT":0},{"OBJECT_NAME":"ONEWEB-0508","OBJECT_ID":"2022-138P","EPOCH":"2025-10-20T05:35:20.487264","MEAN_MOTION":13.19724984,"ECCENTRICITY":0.00019284,"INCLINATION":87.9261,"RA_OF_ASC_NODE":352.7156,"ARG_OF_PERICENTER":110.8907,"MEAN_ANOMALY":249.2432,"EPHEMERIS_TYPE":0,"CLASSIFICATION_TYPE":"U","NORAD_CAT_ID":54126,"ELEMENT_SET_NO":999,"REV_AT_EPOCH":14518,"BSTAR":-1.9534e-6,"MEAN_MOTION_DOT":1.2e-7,"MEAN_MOTION_DDOT":0},{"OBJECT_NAME":"ONEWEB-0509","OBJECT_ID":"2022-138Q","EPOCH":"2025-10-20T04:58:56.347104","MEAN_MOTION":13.19725102,"ECCENTRICITY":0.00018708,"INCLINATION":87.9268,"RA_OF_ASC_NODE":352.6863,"ARG_OF_PERICENTER":102.6996,"MEAN_ANOMALY":257.4346,"EPHEMERIS_TYPE":0,"CLASSIFICATION_TYPE":"U","NORAD_CAT_ID":54127,"ELEMENT_SET_NO":999,"REV_AT_EPOCH":14515,"BSTAR":-0.00012308632,"MEAN_MOTION_DOT":-3.6e-7,"MEAN_MOTION_DDOT":0},{"OBJECT_NAME":"ONEWEB-0510","OBJECT_ID":"2022-138R","EPOCH":"2025-10-20T01:23:50.394624","MEAN_MOTION":13.2077063,"ECCENTRICITY":0.00020686,"INCLINATION":87.9207,"RA_OF_ASC_NODE":322.328,"ARG_OF_PERICENTER":79.8891,"MEAN_ANOMALY":280.2476,"EPHEMERIS_TYPE":0,"CLASSIFICATION_TYPE":"U","NORAD_CAT_ID":54128,"ELEMENT_SET_NO":999,"REV_AT_EPOCH":14758,"BSTAR":0.0002806889,"MEAN_MOTION_DOT":1.27e-6,"MEAN_MOTION_DDOT":0},{"OBJECT_NAME":"ONEWEB-0511","OBJECT_ID":"2022-138S","EPOCH":"2025-10-20T04:54:23.869152","MEAN_MOTION":13.19727492,"ECCENTRICITY":0.00015016,"INCLINATION":87.9265,"RA_OF_ASC_NODE":352.6918,"ARG_OF_PERICENTER":96.1786,"MEAN_ANOMALY":263.9518,"EPHEMERIS_TYPE":0,"CLASSIFICATION_TYPE":"U","NORAD_CAT_ID":54129,"ELEMENT_SET_NO":999,"REV_AT_EPOCH":14518,"BSTAR":0.00012810946,"MEAN_MOTION_DOT":6.4e-7,"MEAN_MOTION_DDOT":0},{"OBJECT_NAME":"ONEWEB-0512","OBJECT_ID":"2022-138T","EPOCH":"2025-10-20T04:43:01.490592","MEAN_MOTION":13.1972465,"ECCENTRICITY":0.00016947,"INCLINATION":87.9248,"RA_OF_ASC_NODE":352.7259,"ARG_OF_PERICENTER":111.0378,"MEAN_ANOMALY":249.0936,"EPHEMERIS_TYPE":0,"CLASSIFICATION_TYPE":"U","NORAD_CAT_ID":54130,"ELEMENT_SET_NO":999,"REV_AT_EPOCH":14515,"BSTAR":8.2437792e-5,"MEAN_MOTION_DOT":4.6e-7,"MEAN_MOTION_DDOT":0},{"OBJECT_NAME":"ONEWEB-0513","OBJECT_ID":"2022-138U","EPOCH":"2025-10-20T05:25:32.604384","MEAN_MOTION":13.20317156,"ECCENTRICITY":0.00013748,"INCLINATION":87.9272,"RA_OF_ASC_NODE":352.6807,"ARG_OF_PERICENTER":110.9108,"MEAN_ANOMALY":249.2172,"EPHEMERIS_TYPE":0,"CLASSIFICATION_TYPE":"U","NORAD_CAT_ID":54131,"ELEMENT_SET_NO":999,"REV_AT_EPOCH":14505,"BSTAR":-3.2530033e-5,"MEAN_MOTION_DOT":0,"MEAN_MOTION_DDOT":0},{"OBJECT_NAME":"ONEWEB-0514","OBJECT_ID":"2022-138V","EPOCH":"2025-10-20T03:16:35.400576","MEAN_MOTION":13.19723993,"ECCENTRICITY":0.00018695,"INCLINATION":87.9261,"RA_OF_ASC_NODE":352.7176,"ARG_OF_PERICENTER":95.2822,"MEAN_ANOMALY":264.8524,"EPHEMERIS_TYPE":0,"CLASSIFICATION_TYPE":"U","NORAD_CAT_ID":54132,"ELEMENT_SET_NO":999,"REV_AT_EPOCH":14516,"BSTAR":0.00028023332,"MEAN_MOTION_DOT":1.25e-6,"MEAN_MOTION_DDOT":0},{"OBJECT_NAME":"ONEWEB-0515","OBJECT_ID":"2022-138W","EPOCH":"2025-10-20T01:05:39.713856","MEAN_MOTION":13.20771059,"ECCENTRICITY":0.00027347,"INCLINATION":87.9216,"RA_OF_ASC_NODE":322.3125,"ARG_OF_PERICENTER":86.4754,"MEAN_ANOMALY":273.6693,"EPHEMERIS_TYPE":0,"CLASSIFICATION_TYPE":"U","NORAD_CAT_ID":54133,"ELEMENT_SET_NO":999,"REV_AT_EPOCH":14760,"BSTAR":0.00028137472,"MEAN_MOTION_DOT":1.27e-6,"MEAN_MOTION_DDOT":0},{"OBJECT_NAME":"ONEWEB-0516","OBJECT_ID":"2022-138X","EPOCH":"2025-10-20T04:29:22.535232","MEAN_MOTION":13.19724856,"ECCENTRICITY":0.00019286,"INCLINATION":87.9248,"RA_OF_ASC_NODE":352.7329,"ARG_OF_PERICENTER":102.8778,"MEAN_ANOMALY":257.2571,"EPHEMERIS_TYPE":0,"CLASSIFICATION_TYPE":"U","NORAD_CAT_ID":54134,"ELEMENT_SET_NO":999,"REV_AT_EPOCH":14517,"BSTAR":0.00025517791,"MEAN_MOTION_DOT":1.15e-6,"MEAN_MOTION_DDOT":0}]
